*******************************************************************************
 Revised: April 12, 2021       Neptune Barycenter                             8
 
 Dynamical point:
 ---------------
 The location of the center-of-mass of the Neptune system. The point about 
 which Neptune and its satellites revolve. See 899 for Neptune center.
*******************************************************************************


*******************************************************************************
Ephemeris / WWW_USER Mon Jun 16 07:55:01 2025 Pasadena, USA      / Horizons
*******************************************************************************
Target body name: Neptune Barycenter (8)          {source: DE441}
Center body name: Solar System Barycenter (0)     {source: DE441}
Center-site name: BODY CENTER
*******************************************************************************
Start time      : A.D. 2024-Jan-01 00:00:00.0000 TDB
Stop  time      : A.D. 2024-Mar-01 00:00:00.0000 TDB
Step-size       : 1440 minutes
*******************************************************************************
Center geodetic : 0.0, 0.0, 0.0                   {E-lon(deg),Lat(deg),Alt(km)}
Center cylindric: 0.0, 0.0, 0.0                   {E-lon(deg),Dxy(km),Dz(km)}
Center radii    : (undefined)
Keplerian GM    : 1.3287001028037071E+11 km^3/s^2
Output units    : KM-S, deg, Julian Day Number (Tp)
Calendar mode   : Mixed Julian/Gregorian
Output type     : GEOMETRIC osculating elements
Output format   : 10
Reference frame : Ecliptic of J2000.0
*******************************************************************************
            JDTDB,            Calendar Date (TDB),                     EC,                     QR,                     IN,                     OM,                      W,                     Tp,                      N,                     MA,                     TA,                      A,                     AD,                     PR,
**************************************************************************************************************************************************************************************************************************************************************************************************************************************************
$$SOE
2460354.500000000, A.D. 2024-Feb-14 00:00:00.0000,  8.749975482328526E-03,  4.459662481019289E+09,  1.770233117746121E+00,  1.317828569262501E+02,  2.725423070130856E+02,  2.468172783791866E+06,  6.920826249270051E-08,  3.132498380909835E+02,  3.125140254792764E+02,  4.499028873355438E+09,  4.538395265691587E+09,  5.201691055861569E+09,
2460355.500000000, A.D. 2024-Feb-15 00:00:00.0000,  8.749983025032973E-03,  4.459662452804943E+09,  1.770233125232708E+00,  1.317828571691039E+02,  2.725423417720911E+02,  2.468172789485557E+06,  6.920826235953828E-08,  3.132557837288429E+02,  3.125200416939040E+02,  4.499028879126432E+09,  4.538395305447922E+09,  5.201691065870040E+09,
2460356.500000000, A.D. 2024-Feb-16 00:00:00.0000,  8.749990556806879E-03,  4.459662424622921E+09,  1.770233132729660E+00,  1.317828574123454E+02,  2.725423765056551E+02,  2.468172795175217E+06,  6.920826222676830E-08,  3.132617293905186E+02,  3.125260579417838E+02,  4.499028884880427E+09,  4.538395345137934E+09,  5.201691075849028E+09,
2460357.500000000, A.D. 2024-Feb-17 00:00:00.0000,  8.749998077637284E-03,  4.459662396473044E+09,  1.770233140237001E+00,  1.317828576559754E+02,  2.725424112141487E+02,  2.468172800860907E+06,  6.920826209439616E-08,  3.132676750756423E+02,  3.125320742225431E+02,  4.499028890617180E+09,  4.538395384761315E+09,  5.201691085798113E+09,
2460358.500000000, A.D. 2024-Feb-18 00:00:00.0000,  8.750005587511009E-03,  4.459662368355143E+09,  1.770233147754750E+00,  1.317828578999946E+02,  2.725424458979368E+02,  2.468172806542687E+06,  6.920826196242722E-08,  3.132736207838518E+02,  3.125380905358152E+02,  4.499028896336459E+09,  4.538395424317776E+09,  5.201691095716895E+09,
2460359.500000000, A.D. 2024-Feb-19 00:00:00.0000,  8.750013086416864E-03,  4.459662340269035E+09,  1.770233155282912E+00,  1.317828581444036E+02,  2.725424805573831E+02,  2.468172812220616E+06,  6.920826183086675E-08,  3.132795665147862E+02,  3.125441068812356E+02,  4.499028902038036E+09,  4.538395463807037E+09,  5.201691105604977E+09,
2460360.500000000, A.D. 2024-Feb-20 00:00:00.0000,  8.750020574341448E-03,  4.459662312214554E+09,  1.770233162821505E+00,  1.317828583892028E+02,  2.725425151928578E+02,  2.468172817894756E+06,  6.920826169972021E-08,  3.132855122680783E+02,  3.125501232584324E+02,  4.499028907721675E+09,  4.538395503228796E+09,  5.201691115461947E+09,
2460361.500000000, A.D. 2024-Feb-21 00:00:00.0000,  8.750028051273256E-03,  4.459662284191518E+09,  1.770233170370536E+00,  1.317828586343928E+02,  2.725425498047222E+02,  2.468172823565166E+06,  6.920826156899289E-08,  3.132914580433698E+02,  3.125561396670432E+02,  4.499028913387145E+09,  4.538395542582772E+09,  5.201691125287410E+09,
2460362.500000000, A.D. 2024-Feb-22 00:00:00.0000,  8.750035517199922E-03,  4.459662256199755E+09,  1.770233177930025E+00,  1.317828588799743E+02,  2.725425843933447E+02,  2.468172829231906E+06,  6.920826143869016E-08,  3.132974038402950E+02,  3.125621561066982E+02,  4.499028919034214E+09,  4.538395581868673E+09,  5.201691135080959E+09,
2460363.500000000, A.D. 2024-Feb-23 00:00:00.0000,  8.750042972111020E-03,  4.459662228239090E+09,  1.770233185499981E+00,  1.317828591259478E+02,  2.725426189590832E+02,  2.468172834895035E+06,  6.920826130881718E-08,  3.133033496584990E+02,  3.125681725770380E+02,  4.499028924662659E+09,  4.538395621086227E+09,  5.201691144842209E+09,
2460364.500000000, A.D. 2024-Feb-24 00:00:00.0000,  8.750050415994253E-03,  4.459662200309348E+09,  1.770233193080414E+00,  1.317828593723138E+02,  2.725426535023029E+02,  2.468172840554614E+06,  6.920826117937925E-08,  3.133092954976198E+02,  3.125741890776962E+02,  4.499028930272248E+09,  4.538395660235148E+09,  5.201691154570761E+09,
2460365.500000000, A.D. 2024-Feb-25 00:00:00.0000,  8.750057848838803E-03,  4.459662172410358E+09,  1.770233200671335E+00,  1.317828596190727E+02,  2.725426880233643E+02,  2.468172846210701E+06,  6.920826105038163E-08,  3.133152413572996E+02,  3.125802056083111E+02,  4.499028935862757E+09,  4.538395699315155E+09,  5.201691164266218E+09,
2460366.500000000, A.D. 2024-Feb-26 00:00:00.0000,  8.750065270634743E-03,  4.459662144541945E+09,  1.770233208272758E+00,  1.317828598662252E+02,  2.725427225226186E+02,  2.468172851863354E+06,  6.920826092182926E-08,  3.133211872371901E+02,  3.125862221685301E+02,  4.499028941433969E+09,  4.538395738325992E+09,  5.201691173928211E+09,
2460367.500000000, A.D. 2024-Feb-27 00:00:00.0000,  8.750072681370536E-03,  4.459662116703930E+09,  1.770233215884684E+00,  1.317828601137716E+02,  2.725427570004398E+02,  2.468172857512634E+06,  6.920826079372769E-08,  3.133271331369209E+02,  3.125922387579782E+02,  4.499028946985643E+09,  4.538395777267357E+09,  5.201691183556321E+09,
2460368.500000000, A.D. 2024-Feb-28 00:00:00.0000,  8.750080081035594E-03,  4.459662088896151E+09,  1.770233223507133E+00,  1.317828603617124E+02,  2.725427914571724E+02,  2.468172863158599E+06,  6.920826066608164E-08,  3.133330790561500E+02,  3.125982553763093E+02,  4.499028952517577E+09,  4.538395816139004E+09,  5.201691193150196E+09,
2460369.500000000, A.D. 2024-Feb-29 00:00:00.0000,  8.750087469625216E-03,  4.459662061118393E+09,  1.770233231140094E+00,  1.317828606100477E+02,  2.725428258932277E+02,  2.468172868801315E+06,  6.920826053889672E-08,  3.133390249944709E+02,  3.126042720231116E+02,  4.499028958029528E+09,  4.538395854940662E+09,  5.201691202709413E+09,
2460370.500000000, A.D. 2024-Mar-01 00:00:00.0000,  8.750094847132656E-03,  4.459662033370478E+09,  1.770233238783674E+00,  1.317828608587810E+02,  2.725428603089680E+02,  2.468172874440843E+06,  6.920826041217769E-08,  3.133449709515217E+02,  3.126102886980183E+02,  4.499028963521286E+09,  4.538395893672094E+09,  5.201691212233611E+09,
